{
    "links": {
        "self": "http://www.neowsapp.com/rest/v1/neo/3617955?api_key=iIulBulltgU6a56xZRHN4H3l9WmuAYTsLGpBGhQ2"
    },
    "id": "3617955",
    "neo_reference_id": "3617955",
    "name": "(2012 VE77)",
    "designation": "2012 VE77",
    "nasa_jpl_url": "http://ssd.jpl.nasa.gov/sbdb.cgi?sstr=3617955",
    "absolute_magnitude_h": 26.3,
    "estimated_diameter": {
        "kilometers": {
            "estimated_diameter_min": 0.0146067964,
            "estimated_diameter_max": 0.0326617897
        },
        "meters": {
            "estimated_diameter_min": 14.6067964271,
            "estimated_diameter_max": 32.6617897446
        },
        "miles": {
            "estimated_diameter_min": 0.0090762397,
            "estimated_diameter_max": 0.020295089
        },
        "feet": {
            "estimated_diameter_min": 47.92256199,
            "estimated_diameter_max": 107.1581062656
        }
    },
    "is_potentially_hazardous_asteroid": false,
    "close_approach_data": [
        {
            "close_approach_date": "2007-01-02",
            "close_approach_date_full": "2007-Jan-02 20:34",
            "epoch_date_close_approach": 1167770040000,
            "relative_velocity": {
                "kilometers_per_second": "16.9075166983",
                "kilometers_per_hour": "60867.0601140571",
                "miles_per_hour": "37820.4241025373"
            },
            "miss_distance": {
                "astronomical": "0.0513931011",
                "lunar": "19.9919163279",
                "kilometers": "7688298.457254657",
                "miles": "4777287.1355899866"
            },
            "orbiting_body": "Mars"
        },
        {
            "close_approach_date": "2012-11-18",
            "close_approach_date_full": "2012-Nov-18 00:17",
            "epoch_date_close_approach": 1353197820000,
            "relative_velocity": {
                "kilometers_per_second": "15.0175753938",
                "kilometers_per_hour": "54063.2714175648",
                "miles_per_hour": "33592.8143983196"
            },
            "miss_distance": {
                "astronomical": "0.0115759641",
                "lunar": "4.5030500349",
                "kilometers": "1731739.572556467",
                "miles": "1076053.0731425646"
            },
            "orbiting_body": "Earth"
        },
        {
            "close_approach_date": "2012-11-18",
            "close_approach_date_full": "2012-Nov-18 03:30",
            "epoch_date_close_approach": 1353209400000,
            "relative_velocity": {
                "kilometers_per_second": "15.9468515931",
                "kilometers_per_hour": "57408.6657351082",
                "miles_per_hour": "35671.5123285732"
            },
            "miss_distance": {
                "astronomical": "0.0093141273",
                "lunar": "3.6231955197",
                "kilometers": "1393373.604988851",
                "miles": "865802.2103581038"
            },
            "orbiting_body": "Moon"
        },
        {
            "close_approach_date": "2017-05-10",
            "close_approach_date_full": "2017-May-10 20:27",
            "epoch_date_close_approach": 1494448020000,
            "relative_velocity": {
                "kilometers_per_second": "27.9105438428",
                "kilometers_per_hour": "100477.9578339097",
                "miles_per_hour": "62433.0955218535"
            },
            "miss_distance": {
                "astronomical": "0.4407143735",
                "lunar": "171.4378912915",
                "kilometers": "65929931.553984445",
                "miles": "40966959.804477541"
            },
            "orbiting_body": "Earth"
        }
    ],
    "orbital_data": {
        "orbit_id": "7",
        "orbit_determination_date": "2019-07-17 06:09:47",
        "first_observation_date": "2012-11-14",
        "last_observation_date": "2012-11-17",
        "data_arc_in_days": 3,
        "observations_used": 33,
        "orbit_uncertainty": "8",
        "minimum_orbit_intersection": ".00104328",
        "jupiter_tisserand_invariant": "4.097",
        "epoch_osculation": "2456247.5",
        "eccentricity": ".5548647413513554",
        "semi_major_axis": "1.640151933087833",
        "inclination": "8.103710680545541",
        "ascending_node_longitude": "235.4313715584436",
        "orbital_period": "767.228182059187",
        "perihelion_distance": ".7300894549581269",
        "perihelion_argument": "254.0716413153601",
        "aphelion_distance": "2.550214411217539",
        "perihelion_time": "2456296.375946221431",
        "mean_anomaly": "337.0663525517396",
        "mean_motion": ".4692215541845518",
        "equinox": "J2000",
        "orbit_class": {
            "orbit_class_type": "APO",
            "orbit_class_description": "Near-Earth asteroid orbits which cross the Earth’s orbit similar to that of 1862 Apollo",
            "orbit_class_range": "a (semi-major axis) > 1.0 AU; q (perihelion) < 1.017 AU"
        }
    },
    "is_sentry_object": false
}